[{"OBJECT_NAME":"JILIN-1 07","OBJECT_ID":"2018-008E","EPOCH":"2026-03-09T22:24:26.445888","MEAN_MOTION":15.32987507,"ECCENTRICITY":0.00101791,"INCLINATION":97.1876,"RA_OF_ASC_NODE":91.5817,"ARG_OF_PERICENTER":62.7832,"MEAN_ANOMALY":297.4447,"EPHEMERIS_TYPE":0,"CLASSIFICATION_TYPE":"U","NORAD_CAT_ID":43159,"ELEMENT_SET_NO":999,"REV_AT_EPOCH":44978,"BSTAR":0.00036439521,"MEAN_MOTION_DOT":0.00011559,"MEAN_MOTION_DDOT":0},{"OBJECT_NAME":"STARLINK-34266","OBJECT_ID":"2025-167R","EPOCH":"2026-03-09T06:30:00.393696","MEAN_MOTION":15.30187195,"ECCENTRICITY":0.00014315,"INCLINATION":53.1616,"RA_OF_ASC_NODE":28.7498,"ARG_OF_PERICENTER":92.1443,"MEAN_ANOMALY":267.9722,"EPHEMERIS_TYPE":0,"CLASSIFICATION_TYPE":"U","NORAD_CAT_ID":65093,"ELEMENT_SET_NO":999,"REV_AT_EPOCH":3341,"BSTAR":0.00079730713,"MEAN_MOTION_DOT":0.0002332,"MEAN_MOTION_DDOT":0}]
